OBJECT_NAME,OBJECT_ID,EPOCH,MEAN_MOTION,ECCENTRICITY,INCLINATION,RA_OF_ASC_NODE,ARG_OF_PERICENTER,MEAN_ANOMALY,EPHEMERIS_TYPE,CLASSIFICATION_TYPE,NORAD_CAT_ID,ELEMENT_SET_NO,REV_AT_EPOCH,BSTAR,MEAN_MOTION_DOT,MEAN_MOTION_DDOT
IONOSFERA-M 4,2025-155B,2026-06-18T21:35:25.477152,14.21488875,.0001103,98.6030,131.6789,120.1443,239.9844,0,U,64877,999,4664,.33649E-4,.31E-6,0
MICROCARB,2025-156A,2026-06-18T18:44:21.613344,14.72326866,.0014976,97.9832,246.8897,266.6573,93.2921,0,U,64899,999,4820,.68319E-4,.383E-5,0
CO3D 3,2025-156B,2026-06-18T19:59:48.875712,15.20205482,.0001568,97.4329,248.5027,129.0504,231.0871,0,U,64900,999,4978,.16314E-3,.3466E-4,0
CO3D 4,2025-156C,2026-06-18T20:00:01.357920,15.20208932,.0000112,97.4333,248.5023,3.6734,356.4502,0,U,64901,999,4978,.13217E-4,.219E-5,0
CO3D 2,2025-156D,2026-06-18T19:12:01.004832,15.20206869,.0001498,97.4329,248.3689,106.7990,253.3409,0,U,64902,999,4977,.14969E-3,.3175E-4,0
CO3D 1,2025-156E,2026-06-18T19:12:14.215392,15.20206466,.0001316,97.4328,248.3691,110.4143,249.7233,0,U,64903,999,4977,.18143E-3,.3863E-4,0
PRSC-S1,2025-164A,2026-06-18T18:55:50.268864,15.06470312,.000635,41.1306,278.7926,354.5608,5.5136,0,U,65055,999,4867,.2589E-3,.3714E-4,0
SENTINEL-6B,2025-264A,2026-06-18T15:32:11.060736,12.80929961,.0008004,66.0397,132.1456,269.1955,90.8143,0,U,66514,999,2735,-.7356E-5,-.63E-6,0
CAS500-3,2025-274F,2026-06-18T18:16:38.656992,14.88324084,.0006795,97.7445,97.7768,106.1386,254.0579,0,U,66655,999,3038,.11111E-3,.974E-5,0
CSG-3,2026-001A,2026-06-18T18:02:33.923328,14.82154687,.0001379,97.8888,353.3309,94.6526,265.4845,0,U,67304,999,2469,.36709E-4,.24E-5,0
PRSC-E03,2026-092A,2026-06-18T20:16:59.022048,15.06675639,.0003417,38.0012,79.9035,17.8677,342.2204,0,U,68835,999,820,.15077E-3,.2172E-4,0
CAS500-2,2026-100AK,2026-06-18T11:14:21.030144,15.20602375,.0010572,97.4073,67.3009,30.8412,329.3442,0,U,69013,999,700,.23876E-3,.5172E-4,0
