IONOSFERA-M 4           
1 64877U 25155B   26169.89960043  .00000031  00000+0  33649-4 0  9995
2 64877  98.6030 131.6789 0001103 120.1443 239.9844 14.21488875 46642
MICROCARB               
1 64899U 25156A   26169.78080571  .00000383  00000+0  68319-4 0  9999
2 64899  97.9832 246.8897 0014976 266.6573  93.2921 14.72326866 48207
CO3D 3                  
1 64900U 25156B   26169.83320458  .00003466  00000+0  16314-3 0  9991
2 64900  97.4329 248.5027 0001568 129.0504 231.0871 15.20205482 49783
CO3D 4                  
1 64901U 25156C   26169.83334905  .00000219  00000+0  13217-4 0  9997
2 64901  97.4333 248.5023 0000112   3.6734 356.4502 15.20208932 49787
CO3D 2                  
1 64902U 25156D   26169.80001163  .00003175  00000+0  14969-3 0  9990
2 64902  97.4329 248.3689 0001498 106.7990 253.3409 15.20206869 49773
CO3D 1                  
1 64903U 25156E   26169.80016453  .00003863  00000+0  18143-3 0  9991
2 64903  97.4328 248.3691 0001316 110.4143 249.7233 15.20206466 49774
PRSC-S1                 
1 65055U 25164A   26169.78877626  .00003714  00000+0  25890-3 0  9995
2 65055  41.1306 278.7926 0006350 354.5608   5.5136 15.06470312 48678
SENTINEL-6B             
1 66514U 25264A   26169.64735024 -.00000063  00000+0 -73560-5 0  9992
2 66514  66.0397 132.1456 0008004 269.1955  90.8143 12.80929961 27355
CAS500-3                
1 66655U 25274F   26169.76155853  .00000974  00000+0  11111-3 0  9999
2 66655  97.7445  97.7768 0006795 106.1386 254.0579 14.88324084 30380
CSG-3                   
1 67304U 26001A   26169.75178152  .00000240  00000+0  36709-4 0  9993
2 67304  97.8888 353.3309 0001379  94.6526 265.4845 14.82154687 24699
PRSC-E03                
1 68835U 26092A   26169.84512757  .00002172  00000+0  15077-3 0  9996
2 68835  38.0012  79.9035 0003417  17.8677 342.2204 15.06675639  8205
CAS500-2                
1 69013U 26100AK  26169.46829896  .00005172  00000+0  23876-3 0  9997
2 69013  97.4073  67.3009 0010572  30.8412 329.3442 15.20602375  7004
